GLOBALSTAR M023         
1 25621U 99004A   25360.57317071 -.00000072  00000+0  17418-3 0  9998
2 25621  52.0074 187.6170 0009761 187.1027 207.8647 12.62511283240039
GLOBALSTAR M040         
1 25622U 99004B   25359.76202949 -.00000075  00000+0  15880-3 0  9999
2 25622  51.9886 194.5236 0002031  87.8527 353.9523 12.62025825239444
GLOBALSTAR M036         
1 25623U 99004C   25360.50957675 -.00000147  00000+0 -93800-3 0  9996
2 25623  51.9972  93.3910 0010851  62.1880 310.5209 11.86616727201815
GLOBALSTAR M038         
1 25624U 99004D   25360.39798071 -.00000080  00000+0  12279-3 0  9993
2 25624  51.9957 238.0228 0002837  84.6515  86.0427 12.32537914226072
GLOBALSTAR M022         
1 25649U 99012A   25360.58944052 -.00000040  00000+0  55716-3 0  9991
2 25649  52.0029 127.8593 0003023 172.8838 269.3563 12.02508360199523
GLOBALSTAR M041         
1 25650U 99012B   25360.24582957 -.00000086  00000+0 -46353-5 0  9998
2 25650  52.0042  16.1011 0001045 350.0811  10.0004 11.96681331201277
GLOBALSTAR M046         
1 25651U 99012C   25360.48730476 -.00000035  00000+0  59641-3 0  9991
2 25651  52.0061  71.2523 0001546 266.2025 107.9959 12.09415300206939
GLOBALSTAR M037         
1 25652U 99012D   25360.26662677 -.00000098  00000+0  30579-4 0  9994
2 25652  52.0025 319.0974 0001552 259.6366 240.3678 12.62458427235538
